ONEWEB-0123             
1 47269U 20100M   25264.09058641  .00000095  00000+0  22801-3 0  9992
2 47269  87.8913  44.1426 0001750  95.3695 264.7633 13.12442147229392
ONEWEB-0124             
1 47270U 20100N   25264.15547521  .00000411  00000+0  11077-2 0  9995
2 47270  87.8919  44.1321 0001584  90.9477 269.1833 13.12442687229286
ONEWEB-0125             
1 47271U 20100P   25264.13274653  .00000166  00000+0  42611-3 0  9993
2 47271  87.8919  44.0993 0001846  89.4675 270.6665 13.12445598229346
ONEWEB-0126             
1 47272U 20100Q   25264.15398704  .00000386  00000+0  10374-2 0  9994
2 47272  87.8924  44.1171 0001742  99.2213 260.9113 13.12441658229415
ONEWEB-0127             
1 47273U 20100R   25263.89105648 -.00000424  00000+0 -12128-2 0  9992
2 47273  87.8918  44.1812 0001685 102.7658 257.3660 13.12444048229402
ONEWEB-0128             
1 47274U 20100S   25264.14248460  .00000404  00000+0  10881-2 0  9992
2 47274  87.8912  44.1548 0001430 102.0917 258.0371 13.12444754229458
ONEWEB-0129             
1 47275U 20100T   25264.12139274 -.00000291  00000+0 -84447-3 0  9999
2 47275  87.8918  44.1041 0002398 125.3137 234.8216 13.12445101229388
ONEWEB-0130             
1 47276U 20100U   25264.14897092  .00000490  00000+0  13279-2 0  9994
2 47276  87.8917  44.0957 0001572 100.7006 259.4300 13.12444642229351
ONEWEB-0131             
1 47277U 20100V   25264.14574096  .00000486  00000+0  13153-2 0  9997
2 47277  87.8918  44.1260 0001599  97.9928 262.1383 13.12444713229395
ONEWEB-0132             
1 47278U 20100W   25264.09870676  .00001346  00000+0  37070-2 0  9995
2 47278  87.8915  44.1372 0001428  79.1253 281.0036 13.12434701229280
ONEWEB-0133             
1 47279U 20100X   25264.11475654 -.00000320  00000+0 -92604-3 0  9994
2 47279  87.8901  44.1025 0001505  96.9584 263.1716 13.12441416229446
ONEWEB-0134             
1 47280U 20100Y   25264.08409343  .00000286  00000+0  75967-3 0  9996
2 47280  87.8917  44.0969 0001503 104.9481 255.1814 13.12443177229418
ONEWEB-0135             
1 47281U 20100Z   25264.13113829  .00000040  00000+0  74848-4 0  9990
2 47281  87.8918  44.1279 0001297 107.3182 252.8089 13.12444058229440
ONEWEB-0136             
1 47282U 20100AA  25264.15061177  .00000483  00000+0  13083-2 0  9994
2 47282  87.8916  44.0927 0001495 112.2725 247.8562 13.12443442229374
ONEWEB-0137             
1 47283U 20100AB  25264.10841462 -.00000457  00000+0 -13066-2 0  9997
2 47283  87.8916  44.1067 0001830  97.6355 262.4982 13.12442363229278
ONEWEB-0138             
1 47284U 20100AC  25264.08734306  .00000232  00000+0  60910-3 0  9993
2 47284  87.8915  44.1209 0001615 100.9647 259.1663 13.12442987229359
ONEWEB-0139             
1 47285U 20100AD  25263.89770957 -.00000159  00000+0 -47790-3 0  9995
2 47285  87.8915  44.1492 0001686  97.6997 262.4323 13.12443564229400
