[{"OBJECT_NAME":"ONEWEB-0123","OBJECT_ID":"2020-100M","EPOCH":"2025-09-21T02:10:26.665824","MEAN_MOTION":13.12442147,"ECCENTRICITY":0.000175,"INCLINATION":87.8913,"RA_OF_ASC_NODE":44.1426,"ARG_OF_PERICENTER":95.3695,"MEAN_ANOMALY":264.7633,"EPHEMERIS_TYPE":0,"CLASSIFICATION_TYPE":"U","NORAD_CAT_ID":47269,"ELEMENT_SET_NO":999,"REV_AT_EPOCH":22939,"BSTAR":0.00022800523,"MEAN_MOTION_DOT":9.5e-7,"MEAN_MOTION_DDOT":0},{"OBJECT_NAME":"ONEWEB-0124","OBJECT_ID":"2020-100N","EPOCH":"2025-09-21T03:43:53.058144","MEAN_MOTION":13.12442687,"ECCENTRICITY":0.00015843,"INCLINATION":87.8919,"RA_OF_ASC_NODE":44.1321,"ARG_OF_PERICENTER":90.9477,"MEAN_ANOMALY":269.1833,"EPHEMERIS_TYPE":0,"CLASSIFICATION_TYPE":"U","NORAD_CAT_ID":47270,"ELEMENT_SET_NO":999,"REV_AT_EPOCH":22928,"BSTAR":0.0011077368,"MEAN_MOTION_DOT":4.11e-6,"MEAN_MOTION_DDOT":0},{"OBJECT_NAME":"ONEWEB-0125","OBJECT_ID":"2020-100P","EPOCH":"2025-09-21T03:11:09.300192","MEAN_MOTION":13.12445598,"ECCENTRICITY":0.0001846,"INCLINATION":87.8919,"RA_OF_ASC_NODE":44.0993,"ARG_OF_PERICENTER":89.4675,"MEAN_ANOMALY":270.6665,"EPHEMERIS_TYPE":0,"CLASSIFICATION_TYPE":"U","NORAD_CAT_ID":47271,"ELEMENT_SET_NO":999,"REV_AT_EPOCH":22934,"BSTAR":0.0004261077,"MEAN_MOTION_DOT":1.66e-6,"MEAN_MOTION_DDOT":0},{"OBJECT_NAME":"ONEWEB-0126","OBJECT_ID":"2020-100Q","EPOCH":"2025-09-21T03:41:44.480256","MEAN_MOTION":13.12441658,"ECCENTRICITY":0.00017424,"INCLINATION":87.8924,"RA_OF_ASC_NODE":44.1171,"ARG_OF_PERICENTER":99.2213,"MEAN_ANOMALY":260.9113,"EPHEMERIS_TYPE":0,"CLASSIFICATION_TYPE":"U","NORAD_CAT_ID":47272,"ELEMENT_SET_NO":999,"REV_AT_EPOCH":22941,"BSTAR":0.001037405,"MEAN_MOTION_DOT":3.86e-6,"MEAN_MOTION_DDOT":0},{"OBJECT_NAME":"ONEWEB-0127","OBJECT_ID":"2020-100R","EPOCH":"2025-09-20T21:23:07.279872","MEAN_MOTION":13.12444048,"ECCENTRICITY":0.00016857,"INCLINATION":87.8918,"RA_OF_ASC_NODE":44.1812,"ARG_OF_PERICENTER":102.7658,"MEAN_ANOMALY":257.366,"EPHEMERIS_TYPE":0,"CLASSIFICATION_TYPE":"U","NORAD_CAT_ID":47273,"ELEMENT_SET_NO":999,"REV_AT_EPOCH":22940,"BSTAR":-0.0012128278,"MEAN_MOTION_DOT":-4.24e-6,"MEAN_MOTION_DDOT":0},{"OBJECT_NAME":"ONEWEB-0128","OBJECT_ID":"2020-100S","EPOCH":"2025-09-21T03:25:10.669440","MEAN_MOTION":13.12444754,"ECCENTRICITY":0.00014303,"INCLINATION":87.8912,"RA_OF_ASC_NODE":44.1548,"ARG_OF_PERICENTER":102.0917,"MEAN_ANOMALY":258.0371,"EPHEMERIS_TYPE":0,"CLASSIFICATION_TYPE":"U","NORAD_CAT_ID":47274,"ELEMENT_SET_NO":999,"REV_AT_EPOCH":22945,"BSTAR":0.0010881018,"MEAN_MOTION_DOT":4.04e-6,"MEAN_MOTION_DDOT":0},{"OBJECT_NAME":"ONEWEB-0129","OBJECT_ID":"2020-100T","EPOCH":"2025-09-21T02:54:48.332736","MEAN_MOTION":13.12445101,"ECCENTRICITY":0.00023988,"INCLINATION":87.8918,"RA_OF_ASC_NODE":44.1041,"ARG_OF_PERICENTER":125.3137,"MEAN_ANOMALY":234.8216,"EPHEMERIS_TYPE":0,"CLASSIFICATION_TYPE":"U","NORAD_CAT_ID":47275,"ELEMENT_SET_NO":999,"REV_AT_EPOCH":22938,"BSTAR":-0.00084446819,"MEAN_MOTION_DOT":-2.91e-6,"MEAN_MOTION_DDOT":0},{"OBJECT_NAME":"ONEWEB-0130","OBJECT_ID":"2020-100U","EPOCH":"2025-09-21T03:34:31.087488","MEAN_MOTION":13.12444642,"ECCENTRICITY":0.00015723,"INCLINATION":87.8917,"RA_OF_ASC_NODE":44.0957,"ARG_OF_PERICENTER":100.7006,"MEAN_ANOMALY":259.43,"EPHEMERIS_TYPE":0,"CLASSIFICATION_TYPE":"U","NORAD_CAT_ID":47276,"ELEMENT_SET_NO":999,"REV_AT_EPOCH":22935,"BSTAR":0.0013278708,"MEAN_MOTION_DOT":4.9e-6,"MEAN_MOTION_DDOT":0},{"OBJECT_NAME":"ONEWEB-0131","OBJECT_ID":"2020-100V","EPOCH":"2025-09-21T03:29:52.018944","MEAN_MOTION":13.12444713,"ECCENTRICITY":0.00015996,"INCLINATION":87.8918,"RA_OF_ASC_NODE":44.126,"ARG_OF_PERICENTER":97.9928,"MEAN_ANOMALY":262.1383,"EPHEMERIS_TYPE":0,"CLASSIFICATION_TYPE":"U","NORAD_CAT_ID":47277,"ELEMENT_SET_NO":999,"REV_AT_EPOCH":22939,"BSTAR":0.0013152706,"MEAN_MOTION_DOT":4.86e-6,"MEAN_MOTION_DDOT":0},{"OBJECT_NAME":"ONEWEB-0132","OBJECT_ID":"2020-100W","EPOCH":"2025-09-21T02:22:08.264064","MEAN_MOTION":13.12434701,"ECCENTRICITY":0.00014283,"INCLINATION":87.8915,"RA_OF_ASC_NODE":44.1372,"ARG_OF_PERICENTER":79.1253,"MEAN_ANOMALY":281.0036,"EPHEMERIS_TYPE":0,"CLASSIFICATION_TYPE":"U","NORAD_CAT_ID":47278,"ELEMENT_SET_NO":999,"REV_AT_EPOCH":22928,"BSTAR":0.0037070019,"MEAN_MOTION_DOT":1.346e-5,"MEAN_MOTION_DDOT":0},{"OBJECT_NAME":"ONEWEB-0133","OBJECT_ID":"2020-100X","EPOCH":"2025-09-21T02:45:14.965056","MEAN_MOTION":13.12441416,"ECCENTRICITY":0.00015052,"INCLINATION":87.8901,"RA_OF_ASC_NODE":44.1025,"ARG_OF_PERICENTER":96.9584,"MEAN_ANOMALY":263.1716,"EPHEMERIS_TYPE":0,"CLASSIFICATION_TYPE":"U","NORAD_CAT_ID":47279,"ELEMENT_SET_NO":999,"REV_AT_EPOCH":22944,"BSTAR":-0.00092604158,"MEAN_MOTION_DOT":-3.2e-6,"MEAN_MOTION_DDOT":0},{"OBJECT_NAME":"ONEWEB-0134","OBJECT_ID":"2020-100Y","EPOCH":"2025-09-21T02:01:05.672352","MEAN_MOTION":13.12443177,"ECCENTRICITY":0.00015035,"INCLINATION":87.8917,"RA_OF_ASC_NODE":44.0969,"ARG_OF_PERICENTER":104.9481,"MEAN_ANOMALY":255.1814,"EPHEMERIS_TYPE":0,"CLASSIFICATION_TYPE":"U","NORAD_CAT_ID":47280,"ELEMENT_SET_NO":999,"REV_AT_EPOCH":22941,"BSTAR":0.00075967132,"MEAN_MOTION_DOT":2.86e-6,"MEAN_MOTION_DDOT":0},{"OBJECT_NAME":"ONEWEB-0135","OBJECT_ID":"2020-100Z","EPOCH":"2025-09-21T03:08:50.348256","MEAN_MOTION":13.12444058,"ECCENTRICITY":0.00012978,"INCLINATION":87.8918,"RA_OF_ASC_NODE":44.1279,"ARG_OF_PERICENTER":107.3182,"MEAN_ANOMALY":252.8089,"EPHEMERIS_TYPE":0,"CLASSIFICATION_TYPE":"U","NORAD_CAT_ID":47281,"ELEMENT_SET_NO":999,"REV_AT_EPOCH":22944,"BSTAR":7.4848192e-5,"MEAN_MOTION_DOT":4.0e-7,"MEAN_MOTION_DDOT":0},{"OBJECT_NAME":"ONEWEB-0136","OBJECT_ID":"2020-100AA","EPOCH":"2025-09-21T03:36:52.856928","MEAN_MOTION":13.12443442,"ECCENTRICITY":0.00014955,"INCLINATION":87.8916,"RA_OF_ASC_NODE":44.0927,"ARG_OF_PERICENTER":112.2725,"MEAN_ANOMALY":247.8562,"EPHEMERIS_TYPE":0,"CLASSIFICATION_TYPE":"U","NORAD_CAT_ID":47282,"ELEMENT_SET_NO":999,"REV_AT_EPOCH":22937,"BSTAR":0.001308347,"MEAN_MOTION_DOT":4.83e-6,"MEAN_MOTION_DDOT":0},{"OBJECT_NAME":"ONEWEB-0137","OBJECT_ID":"2020-100AB","EPOCH":"2025-09-21T02:36:07.023168","MEAN_MOTION":13.12442363,"ECCENTRICITY":0.00018305,"INCLINATION":87.8916,"RA_OF_ASC_NODE":44.1067,"ARG_OF_PERICENTER":97.6355,"MEAN_ANOMALY":262.4982,"EPHEMERIS_TYPE":0,"CLASSIFICATION_TYPE":"U","NORAD_CAT_ID":47283,"ELEMENT_SET_NO":999,"REV_AT_EPOCH":22927,"BSTAR":-0.0013065754,"MEAN_MOTION_DOT":-4.57e-6,"MEAN_MOTION_DDOT":0},{"OBJECT_NAME":"ONEWEB-0138","OBJECT_ID":"2020-100AC","EPOCH":"2025-09-21T02:05:46.440384","MEAN_MOTION":13.12442987,"ECCENTRICITY":0.0001615,"INCLINATION":87.8915,"RA_OF_ASC_NODE":44.1209,"ARG_OF_PERICENTER":100.9647,"MEAN_ANOMALY":259.1663,"EPHEMERIS_TYPE":0,"CLASSIFICATION_TYPE":"U","NORAD_CAT_ID":47284,"ELEMENT_SET_NO":999,"REV_AT_EPOCH":22935,"BSTAR":0.00060909938,"MEAN_MOTION_DOT":2.32e-6,"MEAN_MOTION_DDOT":0},{"OBJECT_NAME":"ONEWEB-0139","OBJECT_ID":"2020-100AD","EPOCH":"2025-09-20T21:32:42.106848","MEAN_MOTION":13.12443564,"ECCENTRICITY":0.00016864,"INCLINATION":87.8915,"RA_OF_ASC_NODE":44.1492,"ARG_OF_PERICENTER":97.6997,"MEAN_ANOMALY":262.4323,"EPHEMERIS_TYPE":0,"CLASSIFICATION_TYPE":"U","NORAD_CAT_ID":47285,"ELEMENT_SET_NO":999,"REV_AT_EPOCH":22940,"BSTAR":-0.00047790041,"MEAN_MOTION_DOT":-1.59e-6,"MEAN_MOTION_DDOT":0}]
